CCSDS_OMM_VERS = 2.0
CREATION_DATE  = 
ORIGINATOR     = 

OBJECT_NAME    = SL-3 R/B
OBJECT_ID      = 1982-079B
CENTER_NAME    = EARTH
REF_FRAME      = TEME
TIME_SYSTEM    = UTC
MEAN_ELEMENT_THEORY = SGP/SGP4

EPOCH          = 2025-12-31T14:15:13.083552
MEAN_MOTION    = 15.23841674
ECCENTRICITY   = .00264852
INCLINATION    = 81.1476
RA_OF_ASC_NODE = 273.4341
ARG_OF_PERICENTER = 38.4390
MEAN_ANOMALY   = 321.8723

EPHEMERIS_TYPE = 0
CLASSIFICATION_TYPE = U
NORAD_CAT_ID   = 13403
ELEMENT_SET_NO = 999
REV_AT_EPOCH   = 36732
BSTAR          = .38267108E-3
MEAN_MOTION_DOT = .9343E-4
MEAN_MOTION_DDOT = 0

CCSDS_OMM_VERS = 2.0
CREATION_DATE  = 
ORIGINATOR     = 

OBJECT_NAME    = SL-14 R/B
OBJECT_ID      = 1982-092B
CENTER_NAME    = EARTH
REF_FRAME      = TEME
TIME_SYSTEM    = UTC
MEAN_ELEMENT_THEORY = SGP/SGP4

EPOCH          = 2025-12-31T15:55:24.161376
MEAN_MOTION    = 14.86576919
ECCENTRICITY   = .00207141
INCLINATION    = 82.5669
RA_OF_ASC_NODE = 205.0133
ARG_OF_PERICENTER = 162.9324
MEAN_ANOMALY   = 264.9557

EPHEMERIS_TYPE = 0
CLASSIFICATION_TYPE = U
NORAD_CAT_ID   = 13553
ELEMENT_SET_NO = 999
REV_AT_EPOCH   = 31882
BSTAR          = .98554949E-4
MEAN_MOTION_DOT = .901E-5
MEAN_MOTION_DDOT = 0

CCSDS_OMM_VERS = 2.0
CREATION_DATE  = 
ORIGINATOR     = 

OBJECT_NAME    = SL-3 R/B
OBJECT_ID      = 1983-010B
CENTER_NAME    = EARTH
REF_FRAME      = TEME
TIME_SYSTEM    = UTC
MEAN_ELEMENT_THEORY = SGP/SGP4

EPOCH          = 2025-12-31T15:13:31.951776
MEAN_MOTION    = 15.44038927
ECCENTRICITY   = .00163121
INCLINATION    = 81.1052
RA_OF_ASC_NODE = 85.5468
ARG_OF_PERICENTER = 283.5064
MEAN_ANOMALY   = 76.4361

EPHEMERIS_TYPE = 0
CLASSIFICATION_TYPE = U
NORAD_CAT_ID   = 13819
ELEMENT_SET_NO = 999
REV_AT_EPOCH   = 34743
BSTAR          = .46152834E-3
MEAN_MOTION_DOT = .21219E-3
MEAN_MOTION_DDOT = 0

CCSDS_OMM_VERS = 2.0
CREATION_DATE  = 
ORIGINATOR     = 

OBJECT_NAME    = SL-3 R/B
OBJECT_ID      = 1983-075B
CENTER_NAME    = EARTH
REF_FRAME      = TEME
TIME_SYSTEM    = UTC
MEAN_ELEMENT_THEORY = SGP/SGP4

EPOCH          = 2025-12-31T14:39:10.301760
MEAN_MOTION    = 15.36567917
ECCENTRICITY   = .00244074
INCLINATION    = 97.6104
RA_OF_ASC_NODE = 2.7334
ARG_OF_PERICENTER = 111.2169
MEAN_ANOMALY   = 249.1685

EPHEMERIS_TYPE = 0
CLASSIFICATION_TYPE = U
NORAD_CAT_ID   = 14208
ELEMENT_SET_NO = 999
REV_AT_EPOCH   = 31969
BSTAR          = .46051549E-3
MEAN_MOTION_DOT = .16531E-3
MEAN_MOTION_DDOT = 0

CCSDS_OMM_VERS = 2.0
CREATION_DATE  = 
ORIGINATOR     = 

OBJECT_NAME    = COSMOS 1536
OBJECT_ID      = 1984-013A
CENTER_NAME    = EARTH
REF_FRAME      = TEME
TIME_SYSTEM    = UTC
MEAN_ELEMENT_THEORY = SGP/SGP4

EPOCH          = 2025-12-31T12:51:48.211488
MEAN_MOTION    = 15.22775357
ECCENTRICITY   = .00149545
INCLINATION    = 82.5444
RA_OF_ASC_NODE = 175.5201
ARG_OF_PERICENTER = 158.2106
MEAN_ANOMALY   = 201.9770

EPHEMERIS_TYPE = 0
CLASSIFICATION_TYPE = U
NORAD_CAT_ID   = 14699
ELEMENT_SET_NO = 999
REV_AT_EPOCH   = 26224
BSTAR          = .47626094E-3
MEAN_MOTION_DOT = .11192E-3
MEAN_MOTION_DDOT = 0

CCSDS_OMM_VERS = 2.0
CREATION_DATE  = 
ORIGINATOR     = 

OBJECT_NAME    = SL-14 R/B
OBJECT_ID      = 1984-027B
CENTER_NAME    = EARTH
REF_FRAME      = TEME
TIME_SYSTEM    = UTC
MEAN_ELEMENT_THEORY = SGP/SGP4

EPOCH          = 2025-12-31T08:15:10.581408
MEAN_MOTION    = 14.85897578
ECCENTRICITY   = .00174378
INCLINATION    = 82.5427
RA_OF_ASC_NODE = 309.1100
ARG_OF_PERICENTER = 195.0522
MEAN_ANOMALY   = 165.0178

EPHEMERIS_TYPE = 0
CLASSIFICATION_TYPE = U
NORAD_CAT_ID   = 14820
ELEMENT_SET_NO = 999
REV_AT_EPOCH   = 23748
BSTAR          = .1028989E-3
MEAN_MOTION_DOT = .923E-5
MEAN_MOTION_DDOT = 0

CCSDS_OMM_VERS = 2.0
CREATION_DATE  = 
ORIGINATOR     = 

OBJECT_NAME    = SL-8 R/B
OBJECT_ID      = 1985-006B
CENTER_NAME    = EARTH
REF_FRAME      = TEME
TIME_SYSTEM    = UTC
MEAN_ELEMENT_THEORY = SGP/SGP4

EPOCH          = 2025-12-31T13:10:42.330720
MEAN_MOTION    = 14.37734979
ECCENTRICITY   = .00194705
INCLINATION    = 74.0458
RA_OF_ASC_NODE = 26.5272
ARG_OF_PERICENTER = 315.1480
MEAN_ANOMALY   = 160.4757

EPHEMERIS_TYPE = 0
CLASSIFICATION_TYPE = U
NORAD_CAT_ID   = 15483
ELEMENT_SET_NO = 999
REV_AT_EPOCH   = 14423
BSTAR          = .19568739E-3
MEAN_MOTION_DOT = .564E-5
MEAN_MOTION_DDOT = 0

CCSDS_OMM_VERS = 2.0
CREATION_DATE  = 
ORIGINATOR     = 

OBJECT_NAME    = SL-12 R/B(2)
OBJECT_ID      = 1985-042D
CENTER_NAME    = EARTH
REF_FRAME      = TEME
TIME_SYSTEM    = UTC
MEAN_ELEMENT_THEORY = SGP/SGP4

EPOCH          = 2025-12-31T09:50:05.324640
MEAN_MOTION    = 14.21957823
ECCENTRICITY   = .00370866
INCLINATION    = 71.1067
RA_OF_ASC_NODE = 231.9788
ARG_OF_PERICENTER = 234.0469
MEAN_ANOMALY   = 299.0249

EPHEMERIS_TYPE = 0
CLASSIFICATION_TYPE = U
NORAD_CAT_ID   = 15772
ELEMENT_SET_NO = 999
REV_AT_EPOCH   = 10468
BSTAR          = .11085564E-3
MEAN_MOTION_DOT = .199E-5
MEAN_MOTION_DDOT = 0

CCSDS_OMM_VERS = 2.0
CREATION_DATE  = 
ORIGINATOR     = 

OBJECT_NAME    = SL-14 R/B
OBJECT_ID      = 1985-069B
CENTER_NAME    = EARTH
REF_FRAME      = TEME
TIME_SYSTEM    = UTC
MEAN_ELEMENT_THEORY = SGP/SGP4

EPOCH          = 2025-12-31T14:50:59.457408
MEAN_MOTION    = 14.86349072
ECCENTRICITY   = .00200913
INCLINATION    = 82.5272
RA_OF_ASC_NODE = 88.9553
ARG_OF_PERICENTER = 60.3471
MEAN_ANOMALY   = 299.9743

EPHEMERIS_TYPE = 0
CLASSIFICATION_TYPE = U
NORAD_CAT_ID   = 15945
ELEMENT_SET_NO = 999
REV_AT_EPOCH   = 16272
BSTAR          = .10169983E-3
MEAN_MOTION_DOT = .924E-5
MEAN_MOTION_DDOT = 0

CCSDS_OMM_VERS = 2.0
CREATION_DATE  = 
ORIGINATOR     = 

OBJECT_NAME    = SL-16 R/B
OBJECT_ID      = 1985-097B
CENTER_NAME    = EARTH
REF_FRAME      = TEME
TIME_SYSTEM    = UTC
MEAN_ELEMENT_THEORY = SGP/SGP4

EPOCH          = 2025-12-31T05:27:31.569408
MEAN_MOTION    = 14.16586668
ECCENTRICITY   = .0007796
INCLINATION    = 71.0030
RA_OF_ASC_NODE = 284.6821
ARG_OF_PERICENTER = 343.0113
MEAN_ANOMALY   = 169.1922

EPHEMERIS_TYPE = 0
CLASSIFICATION_TYPE = U
NORAD_CAT_ID   = 16182
ELEMENT_SET_NO = 999
REV_AT_EPOCH   = 7753
BSTAR          = .13645E-4
MEAN_MOTION_DOT = -.21E-6
MEAN_MOTION_DDOT = 0

CCSDS_OMM_VERS = 2.0
CREATION_DATE  = 
ORIGINATOR     = 

OBJECT_NAME    = SL-14 R/B
OBJECT_ID      = 1986-006B
CENTER_NAME    = EARTH
REF_FRAME      = TEME
TIME_SYSTEM    = UTC
MEAN_ELEMENT_THEORY = SGP/SGP4

EPOCH          = 2025-12-31T09:51:52.749216
MEAN_MOTION    = 14.86698854
ECCENTRICITY   = .00777318
INCLINATION    = 82.5278
RA_OF_ASC_NODE = 323.9829
ARG_OF_PERICENTER = 138.1272
MEAN_ANOMALY   = 222.5928

EPHEMERIS_TYPE = 0
CLASSIFICATION_TYPE = U
NORAD_CAT_ID   = 16496
ELEMENT_SET_NO = 999
REV_AT_EPOCH   = 13906
BSTAR          = .11548577E-3
MEAN_MOTION_DOT = .1112E-4
MEAN_MOTION_DDOT = 0

CCSDS_OMM_VERS = 2.0
CREATION_DATE  = 
ORIGINATOR     = 

OBJECT_NAME    = COSMOS 1743
OBJECT_ID      = 1986-034A
CENTER_NAME    = EARTH
REF_FRAME      = TEME
TIME_SYSTEM    = UTC
MEAN_ELEMENT_THEORY = SGP/SGP4

EPOCH          = 2025-12-31T15:59:09.734496
MEAN_MOTION    = 15.53381984
ECCENTRICITY   = .00050462
INCLINATION    = 82.5349
RA_OF_ASC_NODE = 144.9170
ARG_OF_PERICENTER = 177.1581
MEAN_ANOMALY   = 182.9702

EPHEMERIS_TYPE = 0
CLASSIFICATION_TYPE = U
NORAD_CAT_ID   = 16719
ELEMENT_SET_NO = 999
REV_AT_EPOCH   = 16967
BSTAR          = .6815747E-3
MEAN_MOTION_DOT = .43289E-3
MEAN_MOTION_DDOT = 0

