SL-3 R/B                
1 13403U 82079B   25365.59390143  .00009343  00000+0  38267-3 0  9999
2 13403  81.1476 273.4341 0026485  38.4390 321.8723 15.23841674367324
SL-14 R/B               
1 13553U 82092B   25365.66347409  .00000901  00000+0  98555-4 0  9993
2 13553  82.5669 205.0133 0020714 162.9324 264.9557 14.86576919318826
SL-3 R/B                
1 13819U 83010B   25365.63439759  .00021219  00000+0  46153-3 0  9997
2 13819  81.1052  85.5468 0016312 283.5064  76.4361 15.44038927347439
SL-3 R/B                
1 14208U 83075B   25365.61053590  .00016531  00000+0  46052-3 0  9993
2 14208  97.6104   2.7334 0024407 111.2169 249.1685 15.36567917319694
COSMOS 1536             
1 14699U 84013A   25365.53597467  .00011192  00000+0  47626-3 0  9993
2 14699  82.5444 175.5201 0014954 158.2106 201.9770 15.22775357262241
SL-14 R/B               
1 14820U 84027B   25365.34387247  .00000923  00000+0  10290-3 0  9993
2 14820  82.5427 309.1100 0017437 195.0522 165.0178 14.85897578237489
SL-8 R/B                
1 15483U 85006B   25365.54910105  .00000564  00000+0  19569-3 0  9993
2 15483  74.0458  26.5272 0019470 315.1480 160.4757 14.37734979144236
SL-12 R/B(2)            
1 15772U 85042D   25365.40978385  .00000199  00000+0  11086-3 0  9993
2 15772  71.1067 231.9788 0037086 234.0469 299.0249 14.21957823104682
SL-14 R/B               
1 15945U 85069B   25365.61874372  .00000924  00000+0  10170-3 0  9997
2 15945  82.5272  88.9553 0020091  60.3471 299.9743 14.86349072162728
SL-16 R/B               
1 16182U 85097B   25365.22744872 -.00000021  00000+0  13645-4 0  9990
2 16182  71.0030 284.6821 0007796 343.0113 169.1922 14.16586668 77539
SL-14 R/B               
1 16496U 86006B   25365.41102719  .00001112  00000+0  11549-3 0  9999
2 16496  82.5278 323.9829 0077731 138.1272 222.5928 14.86698854139063
COSMOS 1743             
1 16719U 86034A   25365.66608489  .00043289  00000+0  68157-3 0  9998
2 16719  82.5349 144.9170 0005046 177.1581 182.9702 15.53381984169673
